[{"OBJECT_NAME":"PROBA-1","OBJECT_ID":"2001-049B","EPOCH":"2026-04-27T06:55:36.065568","MEAN_MOTION":15.07301815,"ECCENTRICITY":0.0053888,"INCLINATION":97.9622,"RA_OF_ASC_NODE":124.048,"ARG_OF_PERICENTER":295.7954,"MEAN_ANOMALY":63.7718,"EPHEMERIS_TYPE":0,"CLASSIFICATION_TYPE":"U","NORAD_CAT_ID":26958,"ELEMENT_SET_NO":999,"REV_AT_EPOCH":33595,"BSTAR":0.00011882634,"MEAN_MOTION_DOT":1.78e-5,"MEAN_MOTION_DDOT":0},{"OBJECT_NAME":"CUTE-1 (CO-55)","OBJECT_ID":"2003-031E","EPOCH":"2026-04-26T23:11:29.559840","MEAN_MOTION":14.2430274,"ECCENTRICITY":0.00090672,"INCLINATION":98.6757,"RA_OF_ASC_NODE":126.1672,"ARG_OF_PERICENTER":341.6381,"MEAN_ANOMALY":18.447,"EPHEMERIS_TYPE":0,"CLASSIFICATION_TYPE":"U","NORAD_CAT_ID":27844,"ELEMENT_SET_NO":999,"REV_AT_EPOCH":18438,"BSTAR":0.00015133932,"MEAN_MOTION_DOT":3.06e-6,"MEAN_MOTION_DDOT":0},{"OBJECT_NAME":"CUBESAT XI-IV (CO-57)","OBJECT_ID":"2003-031J","EPOCH":"2026-04-26T23:59:12.403968","MEAN_MOTION":14.23592362,"ECCENTRICITY":0.000938,"INCLINATION":98.6788,"RA_OF_ASC_NODE":125.9538,"ARG_OF_PERICENTER":0.4265,"MEAN_ANOMALY":359.692,"EPHEMERIS_TYPE":0,"CLASSIFICATION_TYPE":"U","NORAD_CAT_ID":27848,"ELEMENT_SET_NO":999,"REV_AT_EPOCH":18409,"BSTAR":0.00012917905,"MEAN_MOTION_DOT":2.51e-6,"MEAN_MOTION_DDOT":0},{"OBJECT_NAME":"APRIZESAT 4","OBJECT_ID":"2009-041D","EPOCH":"2026-04-27T05:02:18.188736","MEAN_MOTION":14.83800859,"ECCENTRICITY":0.00444848,"INCLINATION":98.1423,"RA_OF_ASC_NODE":191.515,"ARG_OF_PERICENTER":126.0433,"MEAN_ANOMALY":234.4915,"EPHEMERIS_TYPE":0,"CLASSIFICATION_TYPE":"U","NORAD_CAT_ID":35684,"ELEMENT_SET_NO":999,"REV_AT_EPOCH":90380,"BSTAR":0.00011990632,"MEAN_MOTION_DOT":9.52e-6,"MEAN_MOTION_DDOT":0},{"OBJECT_NAME":"APRIZESAT 3","OBJECT_ID":"2009-041F","EPOCH":"2026-04-27T03:17:05.328672","MEAN_MOTION":14.96061726,"ECCENTRICITY":0.00609427,"INCLINATION":98.1994,"RA_OF_ASC_NODE":267.9408,"ARG_OF_PERICENTER":235.0712,"MEAN_ANOMALY":124.4773,"EPHEMERIS_TYPE":0,"CLASSIFICATION_TYPE":"U","NORAD_CAT_ID":35686,"ELEMENT_SET_NO":999,"REV_AT_EPOCH":90874,"BSTAR":0.00013500801,"MEAN_MOTION_DOT":1.504e-5,"MEAN_MOTION_DDOT":0},{"OBJECT_NAME":"PROBA-2","OBJECT_ID":"2009-059B","EPOCH":"2026-04-27T01:42:22.846464","MEAN_MOTION":14.54839906,"ECCENTRICITY":0.00145618,"INCLINATION":98.245,"RA_OF_ASC_NODE":301.1333,"ARG_OF_PERICENTER":80.0027,"MEAN_ANOMALY":280.2813,"EPHEMERIS_TYPE":0,"CLASSIFICATION_TYPE":"U","NORAD_CAT_ID":36037,"ELEMENT_SET_NO":999,"REV_AT_EPOCH":87409,"BSTAR":5.8237923e-5,"MEAN_MOTION_DOT":2.05e-6,"MEAN_MOTION_DDOT":0},{"OBJECT_NAME":"APRIZESAT 5","OBJECT_ID":"2011-044E","EPOCH":"2026-04-27T06:26:20.503968","MEAN_MOTION":14.80971933,"ECCENTRICITY":0.00525714,"INCLINATION":98.2437,"RA_OF_ASC_NODE":48.8771,"ARG_OF_PERICENTER":165.2619,"MEAN_ANOMALY":195.0139,"EPHEMERIS_TYPE":0,"CLASSIFICATION_TYPE":"U","NORAD_CAT_ID":37792,"ELEMENT_SET_NO":999,"REV_AT_EPOCH":79125,"BSTAR":0.00012758497,"MEAN_MOTION_DOT":9.52e-6,"MEAN_MOTION_DDOT":0},{"OBJECT_NAME":"APRIZESAT 6","OBJECT_ID":"2011-044F","EPOCH":"2026-04-27T06:37:55.331904","MEAN_MOTION":14.76845735,"ECCENTRICITY":0.00418603,"INCLINATION":98.2391,"RA_OF_ASC_NODE":26.732,"ARG_OF_PERICENTER":248.3136,"MEAN_ANOMALY":229.4234,"EPHEMERIS_TYPE":0,"CLASSIFICATION_TYPE":"U","NORAD_CAT_ID":37793,"ELEMENT_SET_NO":999,"REV_AT_EPOCH":78963,"BSTAR":0.00011199821,"MEAN_MOTION_DOT":7.41e-6,"MEAN_MOTION_DDOT":0},{"OBJECT_NAME":"PROBA-V","OBJECT_ID":"2013-021A","EPOCH":"2026-04-26T21:09:09.561024","MEAN_MOTION":14.23585729,"ECCENTRICITY":0.0002991,"INCLINATION":98.3561,"RA_OF_ASC_NODE":98.0299,"ARG_OF_PERICENTER":289.658,"MEAN_ANOMALY":70.4277,"EPHEMERIS_TYPE":0,"CLASSIFICATION_TYPE":"U","NORAD_CAT_ID":39159,"ELEMENT_SET_NO":999,"REV_AT_EPOCH":67381,"BSTAR":5.6129e-5,"MEAN_MOTION_DOT":8.7e-7,"MEAN_MOTION_DDOT":0},{"OBJECT_NAME":"APRIZESAT 7","OBJECT_ID":"2013-066A","EPOCH":"2026-04-26T19:57:46.078848","MEAN_MOTION":14.91436159,"ECCENTRICITY":0.00365817,"INCLINATION":97.7668,"RA_OF_ASC_NODE":70.8067,"ARG_OF_PERICENTER":23.9186,"MEAN_ANOMALY":336.3722,"EPHEMERIS_TYPE":0,"CLASSIFICATION_TYPE":"U","NORAD_CAT_ID":39416,"ELEMENT_SET_NO":999,"REV_AT_EPOCH":67357,"BSTAR":0.00017559046,"MEAN_MOTION_DOT":1.719e-5,"MEAN_MOTION_DDOT":0},{"OBJECT_NAME":"APRIZESAT 8","OBJECT_ID":"2013-066K","EPOCH":"2026-04-26T19:39:44.602272","MEAN_MOTION":14.87537584,"ECCENTRICITY":0.00475287,"INCLINATION":97.8184,"RA_OF_ASC_NODE":65.0207,"ARG_OF_PERICENTER":94.7774,"MEAN_ANOMALY":265.8872,"EPHEMERIS_TYPE":0,"CLASSIFICATION_TYPE":"U","NORAD_CAT_ID":39425,"ELEMENT_SET_NO":999,"REV_AT_EPOCH":67203,"BSTAR":0.00012761807,"MEAN_MOTION_DOT":1.125e-5,"MEAN_MOTION_DDOT":0},{"OBJECT_NAME":"BUGSAT-1 (TITA)","OBJECT_ID":"2014-033E","EPOCH":"2026-04-27T06:08:16.177056","MEAN_MOTION":15.15069256,"ECCENTRICITY":0.00280211,"INCLINATION":98.0403,"RA_OF_ASC_NODE":206.8528,"ARG_OF_PERICENTER":357.4575,"MEAN_ANOMALY":2.6508,"EPHEMERIS_TYPE":0,"CLASSIFICATION_TYPE":"U","NORAD_CAT_ID":40014,"ELEMENT_SET_NO":999,"REV_AT_EPOCH":64812,"BSTAR":0.00039433596,"MEAN_MOTION_DOT":7.376e-5,"MEAN_MOTION_DDOT":0},{"OBJECT_NAME":"SAUDISAT 4","OBJECT_ID":"2014-033G","EPOCH":"2026-04-27T07:51:30.802176","MEAN_MOTION":14.79467429,"ECCENTRICITY":0.00436425,"INCLINATION":97.7511,"RA_OF_ASC_NODE":265.243,"ARG_OF_PERICENTER":237.9051,"MEAN_ANOMALY":121.7921,"EPHEMERIS_TYPE":0,"CLASSIFICATION_TYPE":"U","NORAD_CAT_ID":40016,"ELEMENT_SET_NO":999,"REV_AT_EPOCH":63855,"BSTAR":0.0001163151,"MEAN_MOTION_DOT":8.3e-6,"MEAN_MOTION_DDOT":0},{"OBJECT_NAME":"APRIZESAT 9","OBJECT_ID":"2014-033J","EPOCH":"2026-04-27T07:13:41.711808","MEAN_MOTION":14.74156243,"ECCENTRICITY":0.00662504,"INCLINATION":97.8981,"RA_OF_ASC_NODE":251.7661,"ARG_OF_PERICENTER":5.1498,"MEAN_ANOMALY":355.0378,"EPHEMERIS_TYPE":0,"CLASSIFICATION_TYPE":"U","NORAD_CAT_ID":40018,"ELEMENT_SET_NO":999,"REV_AT_EPOCH":63606,"BSTAR":9.324082e-5,"MEAN_MOTION_DOT":5.84e-6,"MEAN_MOTION_DDOT":0},{"OBJECT_NAME":"APRIZESAT 10","OBJECT_ID":"2014-033K","EPOCH":"2026-04-27T07:25:59.428704","MEAN_MOTION":14.70835564,"ECCENTRICITY":0.00801792,"INCLINATION":97.9571,"RA_OF_ASC_NODE":245.4279,"ARG_OF_PERICENTER":76.5692,"MEAN_ANOMALY":284.4436,"EPHEMERIS_TYPE":0,"CLASSIFICATION_TYPE":"U","NORAD_CAT_ID":40019,"ELEMENT_SET_NO":999,"REV_AT_EPOCH":63477,"BSTAR":0.00010883478,"MEAN_MOTION_DOT":6.47e-6,"MEAN_MOTION_DDOT":0},{"OBJECT_NAME":"TECHDEMOSAT-1 (TDS-1)","OBJECT_ID":"2014-037H","EPOCH":"2026-04-27T05:32:13.609248","MEAN_MOTION":15.12476404,"ECCENTRICITY":0.00082153,"INCLINATION":98.3811,"RA_OF_ASC_NODE":104.4328,"ARG_OF_PERICENTER":83.3704,"MEAN_ANOMALY":276.8459,"EPHEMERIS_TYPE":0,"CLASSIFICATION_TYPE":"U","NORAD_CAT_ID":40076,"ELEMENT_SET_NO":999,"REV_AT_EPOCH":64052,"BSTAR":0.00064979642,"MEAN_MOTION_DOT":0.00011247,"MEAN_MOTION_DDOT":0}]
