PROBA-1                 
1 26958U 01049B   26117.28861187  .00001780  00000+0  11883-3 0  9991
2 26958  97.9622 124.0480 0053888 295.7954  63.7718 15.07301815335957
CUTE-1 (CO-55)          
1 27844U 03031E   26116.96631435  .00000306  00000+0  15134-3 0  9990
2 27844  98.6757 126.1672 0009067 341.6381  18.4470 14.24302740184387
CUBESAT XI-IV (CO-57)   
1 27848U 03031J   26116.99944912  .00000251  00000+0  12918-3 0  9990
2 27848  98.6788 125.9538 0009380   0.4265 359.6920 14.23592362184090
APRIZESAT 4             
1 35684U 09041D   26117.20993274  .00000952  00000+0  11991-3 0  9992
2 35684  98.1423 191.5150 0044484 126.0433 234.4915 14.83800859903804
APRIZESAT 3             
1 35686U 09041F   26117.13686723  .00001504  00000+0  13501-3 0  9997
2 35686  98.1994 267.9408 0060942 235.0712 124.4773 14.96061726908745
PROBA-2                 
1 36037U 09059B   26117.07109776  .00000205  00000+0  58238-4 0  9992
2 36037  98.2450 301.1333 0014561  80.0027 280.2813 14.54839906874098
APRIZESAT 5             
1 37792U 11044E   26117.26829287  .00000952  00000+0  12758-3 0  9990
2 37792  98.2437  48.8771 0052571 165.2619 195.0139 14.80971933791255
APRIZESAT 6             
1 37793U 11044F   26117.27633486  .00000741  00000+0  11200-3 0  9993
2 37793  98.2391  26.7320 0041860 248.3136 229.4234 14.76845735789638
PROBA-V                 
1 39159U 13021A   26116.88136066  .00000087  00000+0  56129-4 0  9999
2 39159  98.3561  98.0299 0002991 289.6580  70.4277 14.23585729673815
APRIZESAT 7             
1 39416U 13066A   26116.83178332  .00001719  00000+0  17559-3 0  9997
2 39416  97.7668  70.8067 0036581  23.9186 336.3722 14.91436159673575
APRIZESAT 8             
1 39425U 13066K   26116.81926623  .00001125  00000+0  12762-3 0  9991
2 39425  97.8184  65.0207 0047528  94.7774 265.8872 14.87537584672034
BUGSAT-1 (TITA)         
1 40014U 14033E   26117.25574279  .00007376  00000+0  39434-3 0  9996
2 40014  98.0403 206.8528 0028021 357.4575   2.6508 15.15069256648127
SAUDISAT 4              
1 40016U 14033G   26117.32743984  .00000830  00000+0  11632-3 0  9995
2 40016  97.7511 265.2430 0043642 237.9051 121.7921 14.79467429638554
APRIZESAT 9             
1 40018U 14033J   26117.30117722  .00000584  00000+0  93241-4 0  9993
2 40018  97.8981 251.7661 0066250   5.1498 355.0378 14.74156243636060
APRIZESAT 10            
1 40019U 14033K   26117.30971561  .00000647  00000+0  10883-3 0  9993
2 40019  97.9571 245.4279 0080179  76.5692 284.4436 14.70835564634778
TECHDEMOSAT-1 (TDS-1)   
1 40076U 14037H   26117.23071307  .00011247  00000+0  64980-3 0  9996
2 40076  98.3811 104.4328 0008215  83.3704 276.8459 15.12476404640524
